      2.10          N: GNSS NAV DATA                        RINEX VERSION / TYPE
fic2rin                                 10/13/2019 00:19:32 PGM / RUN BY / DATE
                                                            END OF HEADER
16 19 10 12  4  0  0.0-8.247466757894e-05-3.637978807092e-12 0.000000000000e+00
    6.900000000000e+01-6.325000000000e+01 4.423041380284e-09 8.429567644642e-01
   -3.043562173843e-06 1.083906495478e-02 6.297603249550e-06 5.153646755219e+03
    5.328000000000e+05 3.725290298462e-09-1.090944011706e+00 1.247972249985e-07
    9.812018997519e-01 2.681562500000e+02 5.791221367501e-01-8.199984419408e-09
   -6.139541450831e-10 1.000000000000e+00 2.074000000000e+03 0.000000000000e+00
    2.400000000000e+00 0.000000000000e+00-1.071020960808e-08 6.900000000000e+01
    5.256000000000e+05 4.000000000000e+00
23 19 10 12  4  0  0.0-1.619253307581e-04 2.160049916711e-12 0.000000000000e+00
    7.200000000000e+01-3.250000000000e+00 4.521616914922e-09-1.522634044163e+00
   -1.862645149231e-07 1.323690114077e-02 1.214630901814e-05 5.153752758026e+03
    5.328000000000e+05 3.166496753693e-07 2.988864183127e+00-3.725290298462e-09
    9.438558628595e-01 1.290937500000e+02-2.225845860466e+00-7.885685613315e-09
    1.264338379054e-10 1.000000000000e+00 2.074000000000e+03 0.000000000000e+00
    3.400000000000e+00 0.000000000000e+00-2.002343535423e-08 7.200000000000e+01
    5.256000000000e+05 4.000000000000e+00
15 19 10 12  4  0  0.0-2.805236726999e-04 2.728484105319e-12 0.000000000000e+00
    6.600000000000e+01-1.440625000000e+01 4.973778606415e-09-1.008070491028e+00
   -5.662441253662e-07 1.184073043987e-02 1.111626625061e-05 5.153585685730e+03
    5.328000000000e+05 2.142041921616e-07 2.911780023234e+00 1.806765794754e-07
    9.285225371707e-01 1.445625000000e+02 8.210388693702e-01-8.276059016792e-09
   -2.214377952016e-11 1.000000000000e+00 2.074000000000e+03 0.000000000000e+00
    2.400000000000e+00 0.000000000000e+00-1.071020960808e-08 6.600000000000e+01
    5.256000000000e+05 4.000000000000e+00
14 19 10 12  4  0  0.0-5.659274756908e-05 2.046363078989e-12 0.000000000000e+00
    9.300000000000e+01 1.796875000000e+01 4.273749447390e-09-3.987604399158e-01
    9.406358003616e-07 1.075841661077e-02 1.271069049835e-05 5.153763862610e+03
    5.328000000000e+05-7.636845111847e-08 3.089210961191e+00 1.620501279831e-07
    9.609889581446e-01 1.393750000000e+02-1.932533326661e+00-8.038191965817e-09
    1.971510692762e-10 1.000000000000e+00 2.074000000000e+03 0.000000000000e+00
    2.400000000000e+00 0.000000000000e+00-9.778887033463e-09 9.300000000000e+01
    5.256000000000e+05 4.000000000000e+00
11 19 10 12  4  0  0.0-4.807417280972e-04 1.125499693444e-11 0.000000000000e+00
    9.500000000000e+01 8.793750000000e+01 5.396296205969e-09-3.083094032567e+00
    4.643574357033e-06 1.658552081790e-02 9.290874004364e-06 5.153739347458e+03
    5.328000000000e+05 1.788139343262e-07 4.617949788830e-01 1.825392246246e-07
    9.110132788341e-01 1.714687500000e+02 1.957073047445e+00-8.268915862108e-09
    3.489431063096e-10 1.000000000000e+00 2.074000000000e+03 0.000000000000e+00
    2.400000000000e+00 0.000000000000e+00-1.210719347000e-08 9.500000000000e+01
    5.256000000000e+05 4.000000000000e+00
21 19 10 12  4  0  0.0-1.038275659084e-04 6.252776074689e-12 0.000000000000e+00
    6.900000000000e+01 7.106250000000e+01 4.763769858707e-09 2.132798312159e+00
    3.434717655182e-06 2.450183872133e-02 4.861503839493e-06 5.153639575958e+03
    5.328000000000e+05 4.041939973831e-07 8.534461943054e-01-2.980232238770e-08
    9.501314742068e-01 2.718125000000e+02-1.405738572940e+00-7.955688529218e-09
    2.421529437849e-10 1.000000000000e+00 2.074000000000e+03 0.000000000000e+00
    2.400000000000e+00 0.000000000000e+00-1.024454832077e-08 6.900000000000e+01
    5.256000000000e+05 4.000000000000e+00
12 19 10 12  4  0  0.0 1.949393190444e-04-3.865352482535e-12 0.000000000000e+00
    5.600000000000e+01-6.303125000000e+01 4.274463762859e-09 2.692255324772e+00
   -3.393739461899e-06 7.486843853258e-03 5.906447768211e-06 5.153568372726e+03
    5.328000000000e+05-5.029141902924e-08-1.109851604677e+00-1.415610313416e-07
    9.808850492509e-01 2.725000000000e+02 1.103478175312e+00-7.908900866038e-09
   -4.718053668730e-10 1.000000000000e+00 2.074000000000e+03 0.000000000000e+00
    2.400000000000e+00 0.000000000000e+00-1.257285475731e-08 5.600000000000e+01
    5.256000000000e+05 4.000000000000e+00
31 19 10 12  4  0  0.0 4.258472472429e-06-2.614797267597e-12 0.000000000000e+00
    4.700000000000e+01 6.834375000000e+01 4.912347476133e-09 3.027981742131e+00
    3.619119524956e-06 9.419728885405e-03 5.325302481651e-06 5.153708595276e+03
    5.328000000000e+05-1.303851604462e-07-2.198335962477e+00-2.607703208923e-08
    9.590561785737e-01 2.775937500000e+02 3.948667225268e-02-8.204984627687e-09
    4.635907389865e-10 1.000000000000e+00 2.074000000000e+03 0.000000000000e+00
    3.400000000000e+00 0.000000000000e+00-1.350417733192e-08 4.700000000000e+01
    5.256000000000e+05 4.000000000000e+00
30 19 10 12  4  0  0.0-5.973223596811e-05-8.185452315956e-12 0.000000000000e+00
    9.700000000000e+01 6.875000000000e+01 5.348079911852e-09-3.005393268796e+00
    3.617256879807e-06 4.186146543361e-03 5.202367901802e-06 5.153741748810e+03
    5.328000000000e+05-7.264316082001e-08-2.186845839616e+00-3.725290298462e-08
    9.399433703799e-01 2.719062500000e+02-2.900305748165e+00-8.486067764499e-09
    4.507330605555e-10 1.000000000000e+00 2.074000000000e+03 0.000000000000e+00
    3.400000000000e+00 0.000000000000e+00 3.725290298462e-09 9.700000000000e+01
    5.256000000000e+05 4.000000000000e+00
29 19 10 12  4  0  0.0 7.364153862000e-05-1.023181539495e-11 0.000000000000e+00
    5.300000000000e+01 1.481250000000e+01 3.691939498385e-09 6.934969299022e-02
    6.817281246185e-07 1.146725844592e-03 1.193583011627e-05 5.153685634613e+03
    5.328000000000e+05-2.793967723846e-08-6.509430129036e-02-1.303851604462e-08
    9.861267856703e-01 1.629375000000e+02 2.043368814810e+00-7.554957551450e-09
   -4.893060958486e-11 1.000000000000e+00 2.074000000000e+03 0.000000000000e+00
    2.400000000000e+00 0.000000000000e+00-9.778887033463e-09 5.300000000000e+01
    5.256000000000e+05 4.000000000000e+00
32 19 10 12  4  0  0.0 8.838530629873e-05 1.296029950026e-11 0.000000000000e+00
    5.800000000000e+01-3.125000000000e-01 4.295178911442e-09 6.341408370027e-01
   -1.545995473862e-07 3.245134721510e-03 1.264736056328e-05 5.153646364212e+03
    5.328000000000e+05-5.587935447693e-08 3.002618435041e+00 8.568167686462e-08
    9.572596668960e-01 1.350625000000e+02-2.519745827562e+00-7.891757294797e-09
    5.607376426879e-11 1.000000000000e+00 2.074000000000e+03 0.000000000000e+00
    2.400000000000e+00 0.000000000000e+00 4.656612873077e-10 5.800000000000e+01
    5.256000000000e+05 4.000000000000e+00
26 19 10 12  4  0  0.0 5.953293293715e-05 8.640199666843e-12 0.000000000000e+00
    1.030000000000e+02-6.084375000000e+01 5.233789436909e-09 1.785504209486e+00
   -2.985820174217e-06 4.005294409581e-03 5.017966032028e-06 5.153678449631e+03
    5.328000000000e+05 5.215406417847e-08-1.207035907879e+00 1.639127731323e-07
    9.494342372098e-01 2.764062500000e+02 1.187182773899e-01-8.552141945325e-09
   -4.353752779850e-10 1.000000000000e+00 2.074000000000e+03 0.000000000000e+00
    3.400000000000e+00 0.000000000000e+00 7.450580596924e-09 1.030000000000e+02
    5.256000000000e+05 4.000000000000e+00
17 19 10 12  4  0  0.0 1.425785012543e-04 7.048583938740e-12 0.000000000000e+00
    1.010000000000e+02 5.750000000000e+00 3.873375627357e-09-1.933976193986e-01
    3.818422555923e-07 1.320083462633e-02 1.198612153530e-05 5.153584398270e+03
    5.328000000000e+05-1.452863216400e-07-7.644834936346e-02 9.499490261078e-08
    9.845873057733e-01 1.656250000000e+02-1.700312285494e+00-7.858541625516e-09
   -3.428714248282e-11 1.000000000000e+00 2.074000000000e+03 0.000000000000e+00
    2.400000000000e+00 0.000000000000e+00-1.117587089539e-08 1.010000000000e+02
    5.256000000000e+05 4.000000000000e+00
28 19 10 12  4  0  0.0 7.593440823257e-04-1.250555214938e-12 0.000000000000e+00
    5.500000000000e+01-6.668750000000e+01 4.523402703593e-09 6.743474639072e-01
   -3.624707460403e-06 1.912059937604e-02 6.524845957756e-06 5.153703252792e+03
    5.328000000000e+05-2.104789018631e-07-1.087065451611e+00-1.713633537292e-07
    9.801791152059e-01 2.716250000000e+02-1.452414246998e+00-8.437851470382e-09
   -5.096640866978e-10 1.000000000000e+00 2.074000000000e+03 0.000000000000e+00
    3.400000000000e+00 0.000000000000e+00-1.117587089539e-08 5.500000000000e+01
    5.256000000000e+05 4.000000000000e+00
20 19 10 12  4  0  0.0 5.271728150547e-04 1.136868377216e-13 0.000000000000e+00
    7.600000000000e+01-5.603125000000e+01 5.397367679171e-09-2.697649624529e+00
   -2.732500433922e-06 4.958707373589e-03 4.107132554054e-06 5.153618831635e+03
    5.328000000000e+05-6.332993507385e-08 1.837255622648e+00 5.029141902924e-08
    9.314762389928e-01 2.823437500000e+02 2.452211045370e+00-8.596072346631e-09
   -2.521533603424e-10 1.000000000000e+00 2.074000000000e+03 0.000000000000e+00
    2.400000000000e+00 0.000000000000e+00-8.847564458847e-09 7.600000000000e+01
    5.256000000000e+05 4.000000000000e+00
18 19 10 12  4  0  0.0 9.240442886949e-05 2.728484105319e-12 0.000000000000e+00
    5.700000000000e+01 7.818750000000e+01 4.713053460452e-09-2.581207296570e+00
    4.099681973457e-06 1.567905454431e-02 5.435198545456e-06 5.153668619156e+03
    5.328000000000e+05 1.806765794754e-07 8.633404066676e-01-1.117587089539e-08
    9.557673485521e-01 2.714062500000e+02 1.440401527374e+00-8.039263439020e-09
    4.446613790741e-10 1.000000000000e+00 2.074000000000e+03 0.000000000000e+00
    2.400000000000e+00 6.300000000000e+01-5.587935447693e-09 5.700000000000e+01
    5.256000000000e+05 4.000000000000e+00
